{
  "norad_id": 63675,
  "name": "STARLINK-11655 [DTC]",
  "history": [
    {
      "epoch": "2026-03-28T13:42:00.311616",
      "apogee_km": 357.71968303378253,
      "perigee_km": 354.8615919444319,
      "latitude_deg": -2.4899593619962364,
      "longitude_deg": -117.6996537600644,
      "semi_major_axis_km": 6734.427637489107,
      "eccentricity": 0.0002122,
      "inclination_deg": 43.002,
      "raan_deg": 164.3993,
      "arg_perigee_deg": 273.1038,
      "mean_anomaly_deg": 86.9587,
      "mean_motion_rev_day": 15.70911525
    }
  ]
}