{"fetched_at":"2026-03-29T02:12:04Z","count":15717,"tles":[{"name":"STARLINK-11655 [DTC]","line1":"1 63675U 25085M   26087.57083696  .00278268  00000+0  20940-2 0  9993","line2":"2 63675  43.0020 164.3993 0002121 273.1038  86.9587 15.70911525 53213","category":"Starlink"}]}